{
  "type": "FeatureCollection",
  "features": [
    {
      "type": "Feature",
      "properties": {
        "norad_id": 66631,
        "name": "STARLINK-35965",
        "group": "last-30-days",
        "lat": 4.225578156311036,
        "lon": -127.90225566115352,
        "alt_km": 326.6385574116084,
        "timestamp": "2025-12-04T05:42:42.159687+00:00",
        "meta_object_name": "STARLINK-35965",
        "meta_object_id": "2025-271Q",
        "meta_epoch": "2025-12-03T22:00:03.000096",
        "meta_mean_motion": 15.82651013,
        "meta_eccentricity": 5.423e-05,
        "meta_inclination": 53.1565,
        "meta_ra_of_asc_node": 230.5355,
        "meta_arg_of_pericenter": 93.4052,
        "meta_mean_anomaly": 241.0624,
        "meta_ephemeris_type": 0,
        "meta_classification_type": "U",
        "meta_norad_cat_id": 66631,
        "meta_element_set_no": 999,
        "meta_rev_at_epoch": 282,
        "meta_bstar": -0.0088263927,
        "meta_mean_motion_dot": -0.01648276,
        "meta_mean_motion_ddot": 0,
        "tle_line1": "1 66631U 25271Q   25337.91670139 -.01648276  00000+0 -88264-2 0  9990",
        "tle_line2": "2 66631  53.1565 230.5355 0000542  93.4052 241.0624 15.82651013  2829"
      },
      "geometry": {
        "type": "Point",
        "coordinates": [
          -127.90225566115352,
          4.225578156311036
        ]
      }
    },
    {
      "type": "Feature",
      "properties": {
        "norad_id": 66632,
        "name": "STARLINK-35973",
        "group": "last-30-days",
        "lat": 6.034098524884008,
        "lon": -126.5369823257762,
        "alt_km": 326.4002144490032,
        "timestamp": "2025-12-04T05:42:42.159698+00:00",
        "meta_object_name": "STARLINK-35973",
        "meta_object_id": "2025-271R",
        "meta_epoch": "2025-12-03T22:00:03.000096",
        "meta_mean_motion": 15.82609983,
        "meta_eccentricity": 5.271e-05,
        "meta_inclination": 53.1564,
        "meta_ra_of_asc_node": 230.5304,
        "meta_arg_of_pericenter": 83.7477,
        "meta_mean_anomaly": 253.0276,
        "meta_ephemeris_type": 0,
        "meta_classification_type": "U",
        "meta_norad_cat_id": 66632,
        "meta_element_set_no": 999,
        "meta_rev_at_epoch": 276,
        "meta_bstar": -0.0087842856,
        "meta_mean_motion_dot": -0.01638669,
        "meta_mean_motion_ddot": 0,
        "tle_line1": "1 66632U 25271R   25337.91670139 -.01638669  00000+0 -87843-2 0  9998",
        "tle_line2": "2 66632  53.1564 230.5304 0000527  83.7477 253.0276 15.82609983  2767"
      },
      "geometry": {
        "type": "Point",
        "coordinates": [
          -126.5369823257762,
          6.034098524884008
        ]
      }
    },
    {
      "type": "Feature",
      "properties": {
        "norad_id": 66633,
        "name": "STARLINK-35948",
        "group": "last-30-days",
        "lat": 7.850129583443538,
        "lon": -125.15393656687567,
        "alt_km": 326.3400422603954,
        "timestamp": "2025-12-04T05:42:42.159707+00:00",
        "meta_object_name": "STARLINK-35948",
        "meta_object_id": "2025-271S",
        "meta_epoch": "2025-12-03T22:00:03.000096",
        "meta_mean_motion": 15.82606741,
        "meta_eccentricity": 6.968e-05,
        "meta_inclination": 53.1561,
        "meta_ra_of_asc_node": 230.5255,
        "meta_arg_of_pericenter": 106.1227,
        "meta_mean_anomaly": 232.946,
        "meta_ephemeris_type": 0,
        "meta_classification_type": "U",
        "meta_norad_cat_id": 66633,
        "meta_element_set_no": 999,
        "meta_rev_at_epoch": 282,
        "meta_bstar": -0.0089079656,
        "meta_mean_motion_dot": -0.01658558,
        "meta_mean_motion_ddot": 0,
        "tle_line1": "1 66633U 25271S   25337.91670139 -.01658558  00000+0 -89080-2 0  9993",
        "tle_line2": "2 66633  53.1561 230.5255 0000696 106.1227 232.9460 15.82606741  2827"
      },
      "geometry": {
        "type": "Point",
        "coordinates": [
          -125.15393656687567,
          7.850129583443538
        ]
      }
    },
    {
      "type": "Feature",
      "properties": {
        "norad_id": 66634,
        "name": "STARLINK-35967",
        "group": "last-30-days",
        "lat": 9.482978210884026,
        "lon": -123.89722331631143,
        "alt_km": 326.01480511087357,
        "timestamp": "2025-12-04T05:42:42.159717+00:00",
        "meta_object_name": "STARLINK-35967",
        "meta_object_id": "2025-271T",
        "meta_epoch": "2025-12-03T22:00:03.000096",
        "meta_mean_motion": 15.82605401,
        "meta_eccentricity": 5.616e-05,
        "meta_inclination": 53.1561,
        "meta_ra_of_asc_node": 230.521,
        "meta_arg_of_pericenter": 96.5732,
        "meta_mean_anomaly": 244.5492,
        "meta_ephemeris_type": 0,
        "meta_classification_type": "U",
        "meta_norad_cat_id": 66634,
        "meta_element_set_no": 999,
        "meta_rev_at_epoch": 275,
        "meta_bstar": -0.0089096789,
        "meta_mean_motion_dot": -0.01658634,
        "meta_mean_motion_ddot": 0,
        "tle_line1": "1 66634U 25271T   25337.91670139 -.01658634  00000+0 -89097-2 0  9997",
        "tle_line2": "2 66634  53.1561 230.5210 0000561  96.5732 244.5492 15.82605401  2751"
      },
      "geometry": {
        "type": "Point",
        "coordinates": [
          -123.89722331631143,
          9.482978210884026
        ]
      }
    },
    {
      "type": "Feature",
      "properties": {
        "norad_id": 66635,
        "name": "STARLINK-35955",
        "group": "last-30-days",
        "lat": 11.517465204914398,
        "lon": -122.30882422332238,
        "alt_km": 325.69349386846534,
        "timestamp": "2025-12-04T05:42:42.159727+00:00",
        "meta_object_name": "STARLINK-35955",
        "meta_object_id": "2025-271U",
        "meta_epoch": "2025-12-03T22:00:03.000096",
        "meta_mean_motion": 15.82564749,
        "meta_eccentricity": 6.095e-05,
        "meta_inclination": 53.156,
        "meta_ra_of_asc_node": 230.5156,
        "meta_arg_of_pericenter": 78.5294,
        "meta_mean_anomaly": 265.2125,
        "meta_ephemeris_type": 0,
        "meta_classification_type": "U",
        "meta_norad_cat_id": 66635,
        "meta_element_set_no": 999,
        "meta_rev_at_epoch": 282,
        "meta_bstar": -0.0090006665,
        "meta_mean_motion_dot": -0.01670516,
        "meta_mean_motion_ddot": 0,
        "tle_line1": "1 66635U 25271U   25337.91670139 -.01670516  00000+0 -90007-2 0  9994",
        "tle_line2": "2 66635  53.1560 230.5156 0000609  78.5294 265.2125 15.82564749  2826"
      },
      "geometry": {
        "type": "Point",
        "coordinates": [
          -122.30882422332238,
          11.517465204914398
        ]
      }
    },
    {
      "type": "Feature",
      "properties": {
        "norad_id": 66636,
        "name": "STARLINK-35968",
        "group": "last-30-days",
        "lat": 13.097378993512612,
        "lon": -121.05502609705194,
        "alt_km": 325.4896843775705,
        "timestamp": "2025-12-04T05:42:42.159737+00:00",
        "meta_object_name": "STARLINK-35968",
        "meta_object_id": "2025-271V",
        "meta_epoch": "2025-12-03T22:00:03.000096",
        "meta_mean_motion": 15.82597654,
        "meta_eccentricity": 5.633e-05,
        "meta_inclination": 53.156,
        "meta_ra_of_asc_node": 230.5113,
        "meta_arg_of_pericenter": 89.4486,
        "meta_mean_anomaly": 256.2662,
        "meta_ephemeris_type": 0,
        "meta_classification_type": "U",
        "meta_norad_cat_id": 66636,
        "meta_element_set_no": 999,
        "meta_rev_at_epoch": 282,
        "meta_bstar": -0.0091265856,
        "meta_mean_motion_dot": -0.01692914,
        "meta_mean_motion_ddot": 0,
        "tle_line1": "1 66636U 25271V   25337.91670139 -.01692914  00000+0 -91266-2 0  9999",
        "tle_line2": "2 66636  53.1560 230.5113 0000563  89.4486 256.2662 15.82597654  2820"
      },
      "geometry": {
        "type": "Point",
        "coordinates": [
          -121.05502609705194,
          13.097378993512612
        ]
      }
    },
    {
      "type": "Feature",
      "properties": {
        "norad_id": 66637,
        "name": "STARLINK-35953",
        "group": "last-30-days",
        "lat": 14.885131185505367,
        "lon": -119.61002860218946,
        "alt_km": 325.2595731980964,
        "timestamp": "2025-12-04T05:42:42.159746+00:00",
        "meta_object_name": "STARLINK-35953",
        "meta_object_id": "2025-271W",
        "meta_epoch": "2025-12-03T22:00:03.000096",
        "meta_mean_motion": 15.82561707,
        "meta_eccentricity": 5.669e-05,
        "meta_inclination": 53.1559,
        "meta_ra_of_asc_node": 230.5067,
        "meta_arg_of_pericenter": 85.2066,
        "meta_mean_anomaly": 262.8208,
        "meta_ephemeris_type": 0,
        "meta_classification_type": "U",
        "meta_norad_cat_id": 66637,
        "meta_element_set_no": 999,
        "meta_rev_at_epoch": 282,
        "meta_bstar": -0.009115226,
        "meta_mean_motion_dot": -0.01688609,
        "meta_mean_motion_ddot": 0,
        "tle_line1": "1 66637U 25271W   25337.91670139 -.01688609  00000+0 -91152-2 0  9990",
        "tle_line2": "2 66637  53.1559 230.5067 0000566  85.2066 262.8208 15.82561707  2827"
      },
      "geometry": {
        "type": "Point",
        "coordinates": [
          -119.61002860218946,
          14.885131185505367
        ]
      }
    }
  ]
}